ONEWEB-0267             
1 48985U 21060U   24363.36219362  .00000305  00000+0  76487-3 0  9995
2 48985  87.9089 335.5315 0001477  82.6439 277.4860 13.16595723169083
ONEWEB-0268             
1 48986U 21060V   24363.63451116 -.00000010  00000+0 -60421-4 0  9998
2 48986  87.9093 335.4843 0001800  79.6652 280.4681 13.16593199170674
ONEWEB-0269             
1 48987U 21060W   24364.37549562  .00000141  00000+0  33450-3 0  9998
2 48987  87.9098 335.3682 0001819  82.5030 277.6308 13.16595318170559
ONEWEB-0270             
1 48988U 21060X   24363.86093045  .00000069  00000+0  14721-3 0  9991
2 48988  87.9091 335.4450 0001325  90.8932 269.2350 13.16596201170536
ONEWEB-0271             
1 48989U 21060Y   24364.15226372  .00000041  00000+0  73915-4 0  9997
2 48989  87.9093 335.3661 0001446  83.9955 276.1341 13.16593775170556
ONEWEB-0272             
1 48990U 21060Z   24363.64243725  .00000038  00000+0  65908-4 0  9992
2 48990  87.9094 335.4983 0001555  82.6789 277.4519 13.16595663170446
ONEWEB-0273             
1 48991U 21060AA  24364.34858795  .00000037  00000+0  64091-4 0  9991
2 48991  87.9094 335.3433 0001646  89.4586 270.6734 13.16595338170518
ONEWEB-0274             
1 48992U 21060AB  24364.37390792  .00000114  00000+0  26359-3 0  9993
2 48992  87.9101 335.3653 0001685  68.7960 291.3351 13.16596013170551
